ONEWEB-0309             
1 49095U 21075W   23310.63589722 -.00000274  00000+0 -73814-3 0  9993
2 49095  87.9239 195.3921 0001171  96.1303 263.9962 13.17648884108005
ONEWEB-0310             
1 49096U 21075X   23310.89028439 -.00000240  00000+0 -70357-3 0  9997
2 49096  87.9047 180.2387 0001267  79.8093 280.3178 13.12441452110149
ONEWEB-0311             
1 49097U 21075Y   23310.94597656 -.00000043  00000+0 -14383-3 0  9994
2 49097  87.9234 195.3297 0001862  87.1428 272.9916 13.17650866108094
ONEWEB-0312             
1 49098U 21075Z   23310.95862407 -.00000366  00000+0 -97662-3 0  9994
2 49098  87.9257 195.3518 0001616  95.3689 264.7627 13.17648439108072
ONEWEB-0313             
1 49099U 21075AA  23310.93754193 -.00000086  00000+0 -25423-3 0  9990
2 49099  87.9240 195.3669 0001666  88.6001 271.5321 13.17650371108064
ONEWEB-0314             
1 49100U 21075AB  23311.15901537 -.00000125  00000+0 -35574-3 0  9996
2 49100  87.9242 195.2860 0001712  96.6707 263.4619 13.17649206109050
ONEWEB-0315             
1 49101U 21075AC  23310.63509005 -.00001552  00000+0 -43494-2 0  9997
2 49101  87.9037 180.2973 0002198  71.4889 288.6478 13.12450776110098
ONEWEB-0316             
1 49102U 21075AD  23310.84660278  .00000036  00000+0  58834-4 0  9991
2 49102  87.9165 165.1170 0001875  85.2386 274.8960 13.18685162111569
